[
    {
        "Altitude(m)": 622205.9045055931,
        "Argument of Periapsis(deg)": 0.0,
        "Eccentricity": 0.0,
        "Inclination(deg)": 60.0,
        "Latitude(deg)": -52.162537575914584,
        "Longitude(deg)": -92.29961006798632,
        "Mean Anomaly(deg)": -114.5455,
        "RAAN(deg)": 140.0,
        "Satellite Name": "Test1 631",
        "Satellite Number": 631,
        "Semi-Major Axis(m)": 6980739.136638005,
        "Time(s)": 0
    },
    {
        "Altitude(m)": 622344.8109407554,
        "Argument of Periapsis(deg)": 0.00010418945913296404,
        "Eccentricity": 0.0,
        "Inclination(deg)": 60.0,
        "Latitude(deg)": -52.520117201382774,
        "Longitude(deg)": -91.51839595251987,
        "Mean Anomaly(deg)": -113.92539385453817,
        "RAAN(deg)": 139.99957995086024,
        "Satellite Name": "Test1 631",
        "Satellite Number": 631,
        "Semi-Major Axis(m)": 6980739.136638005,
        "Time(s)": 10
    }
]